{
  "type": "FeatureCollection",
  "features": [
    {
      "type": "Feature",
      "properties": {
        "norad_id": 66549,
        "name": "SHIJIAN-28 (SJ-28)",
        "group": "last-30-days",
        "lat": -2.809905993352933,
        "lon": 129.19081520680422,
        "alt_km": 35786.602034963216,
        "timestamp": "2025-12-20T18:51:30.444439+00:00",
        "meta_object_name": "SHIJIAN-28 (SJ-28)",
        "meta_object_id": "2025-277A",
        "meta_epoch": "2025-12-20T14:35:26.987136",
        "meta_mean_motion": 1.0026797,
        "meta_eccentricity": 0.00010406,
        "meta_inclination": 4.9993,
        "meta_ra_of_asc_node": 274.8338,
        "meta_arg_of_pericenter": 136.6774,
        "meta_mean_anomaly": 13.6022,
        "meta_ephemeris_type": 0,
        "meta_classification_type": "U",
        "meta_norad_cat_id": 66549,
        "meta_element_set_no": 999,
        "meta_rev_at_epoch": 36,
        "meta_bstar": 0,
        "meta_mean_motion_dot": -3.32e-06,
        "meta_mean_motion_ddot": 0,
        "tle_line1": "1 66549U 25277A   25354.60795124 -.00000332  00000+0  00000+0 0  9993",
        "tle_line2": "2 66549   4.9993 274.8338 0001040 136.6774  13.6022  1.00267970   365"
      },
      "geometry": {
        "type": "Point",
        "coordinates": [
          129.19081520680422,
          -2.809905993352933
        ]
      }
    },
    {
      "type": "Feature",
      "properties": {
        "norad_id": 66550,
        "name": "CZ-7A R/B",
        "group": "last-30-days",
        "lat": 3.6796202759252155,
        "lon": -79.88524362181381,
        "alt_km": 27482.82462451526,
        "timestamp": "2025-12-20T18:51:30.444489+00:00",
        "meta_object_name": "CZ-7A R/B",
        "meta_object_id": "2025-277B",
        "meta_epoch": "2025-12-18T08:54:45.891072",
        "meta_mean_motion": 2.8884184,
        "meta_eccentricity": 0.6879086,
        "meta_inclination": 14.3533,
        "meta_ra_of_asc_node": 266.9093,
        "meta_arg_of_pericenter": 194.6822,
        "meta_mean_anomaly": 125.1782,
        "meta_ephemeris_type": 0,
        "meta_classification_type": "U",
        "meta_norad_cat_id": 66550,
        "meta_element_set_no": 999,
        "meta_rev_at_epoch": 50,
        "meta_bstar": 0.0030391,
        "meta_mean_motion_dot": 0.0266328,
        "meta_mean_motion_ddot": 1.4058e-06,
        "tle_line1": "1 66550U 25277B   25352.37136448  .02663280  14058-5  30391-2 0  9996",
        "tle_line2": "2 66550  14.3533 266.9093 6879086 194.6822 125.1782  2.88841840   508"
      },
      "geometry": {
        "type": "Point",
        "coordinates": [
          -79.88524362181381,
          3.6796202759252155
        ]
      }
    },
    {
      "type": "Feature",
      "properties": {
        "norad_id": 66554,
        "name": "GLOBAL-33",
        "group": "last-30-days",
        "lat": -13.189091944011993,
        "lon": -154.37263852909769,
        "alt_km": 470.5706604295574,
        "timestamp": "2025-12-20T18:51:30.444515+00:00",
        "meta_object_name": "GLOBAL-33",
        "meta_object_id": "2025-267A",
        "meta_epoch": "2025-12-20T10:09:54.490176",
        "meta_mean_motion": 15.3162198,
        "meta_eccentricity": 0.00038385,
        "meta_inclination": 42.0214,
        "meta_ra_of_asc_node": 12.634,
        "meta_arg_of_pericenter": 144.4876,
        "meta_mean_anomaly": 215.6217,
        "meta_ephemeris_type": 0,
        "meta_classification_type": "U",
        "meta_norad_cat_id": 66554,
        "meta_element_set_no": 999,
        "meta_rev_at_epoch": 458,
        "meta_bstar": 0.00030721953,
        "meta_mean_motion_dot": 9.345e-05,
        "meta_mean_motion_ddot": 0,
        "tle_line1": "1 66554U 25267A   25354.42354734  .00009345  00000+0  30722-3 0  9996",
        "tle_line2": "2 66554  42.0214  12.6340 0003838 144.4876 215.6217 15.31621980  4580"
      },
      "geometry": {
        "type": "Point",
        "coordinates": [
          -154.37263852909769,
          -13.189091944011993
        ]
      }
    },
    {
      "type": "Feature",
      "properties": {
        "norad_id": 66555,
        "name": "ELECTRON KICK STAGE R/B",
        "group": "last-30-days",
        "lat": -33.17622995235635,
        "lon": -36.27797936177191,
        "alt_km": 473.8011790473447,
        "timestamp": "2025-12-20T18:51:30.444528+00:00",
        "meta_object_name": "ELECTRON KICK STAGE R/B",
        "meta_object_id": "2025-267B",
        "meta_epoch": "2025-12-19T18:04:54.008832",
        "meta_mean_motion": 15.33128579,
        "meta_eccentricity": 0.00068354,
        "meta_inclination": 42.0196,
        "meta_ra_of_asc_node": 16.2602,
        "meta_arg_of_pericenter": 110.4323,
        "meta_mean_anomaly": 249.7249,
        "meta_ephemeris_type": 0,
        "meta_classification_type": "U",
        "meta_norad_cat_id": 66555,
        "meta_element_set_no": 999,
        "meta_rev_at_epoch": 448,
        "meta_bstar": 0.00053717266,
        "meta_mean_motion_dot": 0.00017365,
        "meta_mean_motion_ddot": 0,
        "tle_line1": "1 66555U 25267B   25353.75340288  .00017365  00000+0  53717-3 0  9991",
        "tle_line2": "2 66555  42.0196  16.2602 0006835 110.4323 249.7249 15.33128579  4481"
      },
      "geometry": {
        "type": "Point",
        "coordinates": [
          -36.27797936177191,
          -33.17622995235635
        ]
      }
    },
    {
      "type": "Feature",
      "properties": {
        "norad_id": 66557,
        "name": "STARLINK-35699",
        "group": "last-30-days",
        "lat": 38.85200261533656,
        "lon": 133.95422652960835,
        "alt_km": 406.72863070358744,
        "timestamp": "2025-12-20T18:51:30.444540+00:00",
        "meta_object_name": "STARLINK-35699",
        "meta_object_id": "2025-268A",
        "meta_epoch": "2025-12-19T13:12:05.651424",
        "meta_mean_motion": 15.50689057,
        "meta_eccentricity": 0.0002216,
        "meta_inclination": 43.0009,
        "meta_ra_of_asc_node": 81.3713,
        "meta_arg_of_pericenter": 38.1148,
        "meta_mean_anomaly": 321.9869,
        "meta_ephemeris_type": 0,
        "meta_classification_type": "U",
        "meta_norad_cat_id": 66557,
        "meta_element_set_no": 999,
        "meta_rev_at_epoch": 568,
        "meta_bstar": 0.00095065,
        "meta_mean_motion_dot": 0.00056051,
        "meta_mean_motion_ddot": 0,
        "tle_line1": "1 66557U 25268A   25353.55006541  .00056051  00000+0  95065-3 0  9990",
        "tle_line2": "2 66557  43.0009  81.3713 0002216  38.1148 321.9869 15.50689057  5689"
      },
      "geometry": {
        "type": "Point",
        "coordinates": [
          133.95422652960835,
          38.85200261533656
        ]
      }
    },
    {
      "type": "Feature",
      "properties": {
        "norad_id": 66558,
        "name": "STARLINK-35695",
        "group": "last-30-days",
        "lat": 42.58238570155101,
        "lon": 154.57286387393128,
        "alt_km": 392.82252926899037,
        "timestamp": "2025-12-20T18:51:30.444552+00:00",
        "meta_object_name": "STARLINK-35695",
        "meta_object_id": "2025-268B",
        "meta_epoch": "2025-12-20T14:00:03.000384",
        "meta_mean_motion": 15.56193538,
        "meta_eccentricity": 0.00016851,
        "meta_inclination": 42.9998,
        "meta_ra_of_asc_node": 75.2965,
        "meta_arg_of_pericenter": 261.4287,
        "meta_mean_anomaly": 126.2746,
        "meta_ephemeris_type": 0,
        "meta_classification_type": "U",
        "meta_norad_cat_id": 66558,
        "meta_element_set_no": 999,
        "meta_rev_at_epoch": 592,
        "meta_bstar": 0.0027257433,
        "meta_mean_motion_dot": 0.00200811,
        "meta_mean_motion_ddot": 0,
        "tle_line1": "1 66558U 25268B   25354.58336806  .00200811  00000+0  27257-2 0  9997",
        "tle_line2": "2 66558  42.9998  75.2965 0001685 261.4287 126.2746 15.56193538  5927"
      },
      "geometry": {
        "type": "Point",
        "coordinates": [
          154.57286387393128,
          42.58238570155101
        ]
      }
    },
    {
      "type": "Feature",
      "properties": {
        "norad_id": 66559,
        "name": "STARLINK-35419",
        "group": "last-30-days",
        "lat": 42.771459429978705,
        "lon": 157.2009734458806,
        "alt_km": 392.81669860228703,
        "timestamp": "2025-12-20T18:51:30.444563+00:00",
        "meta_object_name": "STARLINK-35419",
        "meta_object_id": "2025-268C",
        "meta_epoch": "2025-12-20T14:00:03.000384",
        "meta_mean_motion": 15.56217607,
        "meta_eccentricity": 0.0001837,
        "meta_inclination": 42.9996,
        "meta_ra_of_asc_node": 75.2941,
        "meta_arg_of_pericenter": 270.8763,
        "meta_mean_anomaly": 118.7471,
        "meta_ephemeris_type": 0,
        "meta_classification_type": "U",
        "meta_norad_cat_id": 66559,
        "meta_element_set_no": 999,
        "meta_rev_at_epoch": 592,
        "meta_bstar": 0.0027222546,
        "meta_mean_motion_dot": 0.00200731,
        "meta_mean_motion_ddot": 0,
        "tle_line1": "1 66559U 25268C   25354.58336806  .00200731  00000+0  27223-2 0  9992",
        "tle_line2": "2 66559  42.9996  75.2941 0001837 270.8763 118.7471 15.56217607  5927"
      },
      "geometry": {
        "type": "Point",
        "coordinates": [
          157.2009734458806,
          42.771459429978705
        ]
      }
    }
  ]
}